CELTEE 1                
1 41850U 16067C   18078.17770206  .00000661  00000-0  63110-4 0  9990
2 41850  97.9255 165.2059 0010343 103.6751 256.5622 14.96760071 73637
OPTICUBE 04             
1 41851U 16067D   18078.20151295  .00000229  00000-0  25428-4 0  9996
2 41851  97.9260 165.1686 0010518 102.4451 257.7948 14.96637283 73639
AEROCUBE 8D             
1 41852U 16067E   18078.29396708  .00000230  00000-0  25612-4 0  9993
2 41852  97.9264 165.1167 0010924 103.6344 256.6093 14.96431704 73632
AEROCUBE 8C             
1 41853U 16067F   18078.23911183  .00000626  00000-0  60565-4 0  9993
2 41853  97.9264 165.0300 0011481 105.3006 254.9484 14.96395413 73624
PROMETHEUS 2-1          
1 41854U 16067G   18078.18408170  .00001148  00000-0  10636-3 0  9998
2 41854  97.9275 164.9637 0012016 105.0220 255.2331 14.96469757 73615
PROMETHEUS 2-3          
1 41855U 16067H   18078.18656013  .00001179  00000-0  10909-3 0  9997
2 41855  97.9277 164.9687 0012219 105.1883 255.0690 14.96468047 73611
ITF-2                   
1 41932U 98067KU  18078.25230483  .00048060  00000-0  38040-3 0  9996
2 41932  51.6365  82.4057 0002334 202.2117 157.8780 15.70835457 66609
WASEDA-SAT3             
1 41933U 98067KV  18078.44684407  .00069926  00000-0  47386-3 0  9994
2 41933  51.6334  77.6030 0001536 199.4323 160.6618 15.74341678 66683
AOBA-VELOX 3            
1 41935U 98067KX  18078.44121198  .00060029  00000-0  43137-3 0  9994
2 41935  51.6351  79.1303 0001496 198.1110 161.9836 15.73035270 66761
INS-1B                  
1 41954U 17008G   18078.56468817  .00002181  00000-0  96476-4 0  9996
2 41954  97.4559 143.2499 0008146 314.5813  45.4758 15.22740912 60361
BGUSAT                  
1 41999U 17008BD  18078.56069768  .00003553  00000-0  14885-3 0  9994
2 41999  97.4599 144.0467 0007515 336.2966  23.7924 15.24169895 59771
DIDO-2                  
1 42000U 17008BE  18078.51933892  .00001472  00000-0  65595-4 0  9994
2 42000  97.4582 143.5853 0007902 337.1317  22.9567 15.22997711 59756
PEASSS                  
1 42015U 17008BV  18078.54433443  .00002123  00000-0  91237-4 0  9996
2 42015  97.4573 143.9635 0005978 349.3612  10.7497 15.23765547 60264
AL-FARABI 1             
1 42016U 17008BW  18078.55947854  .00002581  00000-0  10915-3 0  9995
2 42016  97.4580 144.1154 0005833 349.8173  10.2945 15.24117621 60391
NAYIF-1 (EO-88)         
1 42017U 17008BX  18078.55508444  .00002580  00000-0  10901-3 0  9998
2 42017  97.4578 144.1167 0005846 350.1908   9.9214 15.24139488 60410
HAVELSAT                
1 42700U 98067LH  18078.39709353  .00041050  00000-0  38939-3 0  9991
2 42700  51.6361  92.3659 0003225 291.1265  68.9386 15.66481605 47923
SGSAT                   
1 42703U 98067LL  18078.48246187  .00168602  00000-0  73454-3 0  9999
2 42703  51.6320  80.0263 0002855  76.0012 284.1308 15.83735773 48007
CXBN-2                  
1 42704U 98067LM  18078.39587890  .00043693  00000-0  42027-3 0  9993
2 42704  51.6365  93.1171 0000759 138.5464 221.5590 15.66109886 47835
ICECUBE                 
1 42705U 98067LN  18078.40708398  .00066276  00000-0  52871-3 0  9994
2 42705  51.6406  89.4927 0000909 144.7490 215.3568 15.70515334 47946
PHOENIX                 
1 42706U 98067LP  18078.39935041  .00035242  00000-0  34922-3 0  9996
2 42706  51.6358  93.1351 0000417  80.5709 279.5334 15.65465450 47827
X-CUBESAT               
1 42707U 98067LQ  18078.46430455  .00046459  00000-0  43556-3 0  9999
2 42707  51.6334  92.0282 0000592  68.2185 291.8874 15.66721220 47836
QBEE50-LTU-OC           
1 42708U 98067LR  18078.43537379  .00044189  00000-0  42306-3 0  9990
2 42708  51.6360  92.6088 0000499  69.9394 290.1655 15.66221178 47782
ALTAIR PATHFINDER       
1 42711U 98067LS  18078.50109699  .00019010  00000-0  21928-3 0  9994
2 42711  51.6360  96.8119 0002903 192.9623 167.1297 15.61960762 47443
SHARC                   
1 42712U 98067LT  18078.46023042  .00019255  00000-0  23169-3 0  9997
2 42712  51.6379  98.0767 0001376 193.4847 166.6110 15.60848578 47665
ZA-AEROSAT              
1 42713U 98067LU  18078.42170554  .00035441  00000-0  36682-3 0  9994
2 42713  51.6350  94.7761 0001242 154.9552 205.1503 15.64363295 47464
LINK                    
1 42714U 98067LV  18078.49614283  .00063190  00000-0  50141-3 0  9992
2 42714  51.6318  89.2066 0001281 109.8110 250.3025 15.70662543 47655
CSUNSAT 1               
1 42715U 98067LW  18078.40262389  .00037303  00000-0  38085-3 0  9990
2 42715  51.6364  94.6597 0002734 177.3719 182.7291 15.64682340 47467
SPACECUBE               
1 42717U 98067LY  18078.39499829  .00044517  00000-0  42741-3 0  9990
2 42717  51.6344  93.0876 0002039 301.5701  58.5096 15.66146401 46850
HOOPOE                  
1 42718U 98067LZ  18078.47874912  .00043173  00000-0  39152-3 0  9999
2 42718  51.6355  91.4004 0001820 308.6356  51.4477 15.67576527 46884
CHALLENGER              
1 42721U 98067MA  18078.45391149  .00099746  00000-0  70199-3 0  9990
2 42721  51.6336  87.4232 0002012 281.6558  78.4215 15.73315807 46634
NJUST-1                 
1 42722U 98067MB  18078.43431422  .00031509  00000-0  33611-3 0  9999
2 42722  51.6360  95.6191 0004507 260.4028  99.6458 15.63647461 46520
UNSW-ECO                
1 42723U 98067MC  18078.44296890  .00057233  00000-0  51065-3 0  9994
2 42723  51.6372  91.9288 0003209 266.5413  93.5217 15.67851795 46553
LILACSAT-1              
1 42725U 98067ME  18078.52703577  .00034071  00000-0  34194-3 0  9999
2 42725  51.6358  93.9875 0003335 267.3963  92.6650 15.65158392 46475
NSIGHT-1                
1 42726U 98067MF  18078.42164909  .00016249  00000-0  20290-3 0  9998
2 42726  51.6379  99.3144 0004646 261.3373  98.7093 15.60004481 46385
SNUSAT-1                
1 42727U 98067MG  18078.27765641  .00040537  00000-0  40678-3 0  9991
2 42727  51.6343  95.2866 0004920 212.2743 147.7952 15.65069919 46385
I-INSPIRE II            
1 42731U 98067ML  18078.40209657  .00058186  00000-0  50771-3 0  9995
2 42731  51.6348  91.6096 0003643 190.5053 169.5868 15.68390216 46336
POLYITAN-2-SAU          
1 42732U 98067MM  18078.39561492  .00047054  00000-0  44340-3 0  9999
2 42732  51.6352  93.0822 0004193 191.9892 168.1005 15.66580920 46319
SNUSAT-1B               
1 42733U 98067MN  18078.41166135  .00042203  00000-0  41439-3 0  9995
2 42733  51.6356  93.9490 0004336 197.5177 162.5669 15.65601275 46300
EXALTA-1                
1 42734U 98067MP  18078.40616841  .00061269  00000-0  53257-3 0  9993
2 42734  51.6334  91.6290 0004219 229.7449 130.3179 15.68459767 46286
BEEAGLESAT              
1 42736U 98067MR  18078.41172691  .00039578  00000-0  40129-3 0  9998
2 42736  51.6352  94.6982 0004560 255.6823 104.3665 15.64821957 46351
ATLANTIS                
1 42737U 98067MS  18078.43117327  .00881744  38748-3  15551-2 0  9999
2 42737  51.6204  75.0099 0003381  90.1049 270.0349 16.01407415 46500
UCLSAT                  
1 42765U 17036A   18078.12227539  .00001882  00000-0  86329-4 0  9997
2 42765  97.4120 139.3835 0012852  39.1307 321.0856 15.21597566 41605
LITUANICASAT-2          
1 42768U 17036D   18078.60736204  .00003171  00000-0  14578-3 0  9996
2 42768  97.4129 139.5188 0016389  26.2523 333.9540 15.20974710 40943
AALTO-1                 
1 42775U 17036L   18078.60716920  .00001331  00000-0  63773-4 0  9995
2 42775  97.4116 139.4994 0014869  24.5756 335.6185 15.20577185 40883
URSA MAIOR              
1 42776U 17036M   18078.59799038  .00001410  00000-0  67249-4 0  9995
2 42776  97.4121 139.5242 0014707  24.9624 335.2320 15.20644841 40887
COMPASS 2               
1 42777U 17036N   18078.11294448  .00002665  00000-0  12160-3 0  9993
2 42777  97.4135 139.2977 0013750  30.9200 329.2842 15.21405091 40817
DIAMOND RED             
1 42783U 17036U   18078.23064701  .00000967  00000-0  46302-4 0  9999
2 42783  97.4120 139.3959 0013407  38.5075 321.7114 15.21250634 40834
PEGASUS                 
1 42784U 17036V   18078.60920627  .00001835  00000-0  84694-4 0  9990
2 42784  97.4122 139.8103 0013330  37.2723 322.9435 15.21424100 40890
DIAMOND GREEN           
1 42785U 17036W   18078.22973584  .00001249  00000-0  58927-4 0  9998
2 42785  97.4124 139.4051 0013339  39.0400 321.1796 15.21255208 40906
DIAMOND BLUE            
1 42786U 17036X   18078.22887505  .00001745  00000-0  81073-4 0  9995
2 42786  97.4124 139.4047 0013169  39.3651 320.8539 15.21253400 40907
NUDTSAT                 
1 42787U 17036Y   18078.22955199  .00003254  00000-0  14577-3 0  9992
2 42787  97.4124 139.5595 0012875  38.9792 321.2369 15.21894754 40685
SUCHAI                  
1 42788U 17036Z   18078.12076001  .00002008  00000-0  91794-4 0  9991
2 42788  97.4123 139.3925 0012992  39.1273 321.0900 15.21649107 40899
SKCUBE                  
1 42789U 17036AA  18078.11850378  .00001869  00000-0  85685-4 0  9994
2 42789  97.4122 139.3914 0012816  39.1764 321.0398 15.21630426 40814
VZLUSAT-1               
1 42790U 17036AB  18078.61481224  .00002783  00000-0  12501-3 0  9993
2 42790  97.4121 139.9475 0012400  38.2630 321.9484 15.21923199 40899
ROBUSTA-1B              
1 42792U 17036AD  18078.22691307  .00002266  00000-0  10281-3 0  9996
2 42792  97.4120 139.5431 0012412  40.1018 320.1131 15.21771820 40840
CICERO 6                
1 42793U 17036AE  18078.60882344  .00001312  00000-0  60988-4 0  9993
2 42793  97.4115 139.9393 0011572  40.2734 319.9357 15.21697004 40979
D-SAT                   
1 42794U 17036AF  18078.10555813  .00000552  00000-0  53856-4 0  9998
2 42794  97.6035 136.1139 0126263 221.4521 137.7067 14.90801377 40307
TOKI                    
1 42820U 98067MU  18078.49583109  .00029188  00000-0  30824-3 0  9997
2 42820  51.6352  96.0136 0002004 154.9811 205.1281 15.63952727 39806
MAZAALAI (NUMSAT-1)     
1 42822U 98067MW  18078.51578856  .00029696  00000-0  31591-3 0  9991
2 42822  51.6353  96.1499 0001848 162.1885 197.9174 15.63756755 39788
